STARLINK-30502          
1 57973U 23151K   26068.07659787 -.00003338  00000+0 -11181-3 0  9997
2 57973  43.0036 339.3691 0001924 254.6619 105.4020 15.27576128135670
2025-313BE              
1 67482U 25313BE  26068.69721505  .00077178  00000+0  26504-2 0  9996
2 67482  97.3989 145.3568 0007208 335.3714  24.7181 15.29801687  7972
